[{"OBJECT_NAME":"STARLINK-5761","OBJECT_ID":"2023-020AG","EPOCH":"2026-03-09T14:51:33.931008","MEAN_MOTION":15.02916645,"ECCENTRICITY":0.0001047,"INCLINATION":43.0004,"RA_OF_ASC_NODE":352.4704,"ARG_OF_PERICENTER":272.4252,"MEAN_ANOMALY":87.6471,"EPHEMERIS_TYPE":0,"CLASSIFICATION_TYPE":"U","NORAD_CAT_ID":55599,"ELEMENT_SET_NO":999,"REV_AT_EPOCH":16905,"BSTAR":0.0034112,"MEAN_MOTION_DOT":0.00046654,"MEAN_MOTION_DDOT":0},{"OBJECT_NAME":"TITAN 4B DEB","OBJECT_ID":"2000-047C","EPOCH":"2026-03-09T02:32:29.436864","MEAN_MOTION":14.9171765,"ECCENTRICITY":0.00575622,"INCLINATION":67.9942,"RA_OF_ASC_NODE":238.0618,"ARG_OF_PERICENTER":121.1285,"MEAN_ANOMALY":239.5519,"EPHEMERIS_TYPE":0,"CLASSIFICATION_TYPE":"U","NORAD_CAT_ID":27469,"ELEMENT_SET_NO":999,"REV_AT_EPOCH":28480,"BSTAR":9.2128473e-5,"MEAN_MOTION_DOT":8.38e-6,"MEAN_MOTION_DDOT":0}]
